{"type":"FeatureCollection","features":[
{"type":"Feature","properties":{"name":"Alabama"},"geometry":{"type":"Point","coordinates":[-86.83,32.80]}},
{"type":"Feature","properties":{"name":"Arizona"},"geometry":{"type":"Point","coordinates":[-111.43,34.31]}},
{"type":"Feature","properties":{"name":"Arkansas"},"geometry":{"type":"Point","coordinates":[-92.19,34.87]}},
{"type":"Feature","properties":{"name":"California"},"geometry":{"type":"Point","coordinates":[-119.18,36.78]}},
{"type":"Feature","properties":{"name":"Colorado"},"geometry":{"type":"Point","coordinates":[-105.55,38.99]}},
{"type":"Feature","properties":{"name":"Connecticut"},"geometry":{"type":"Point","coordinates":[-72.73,41.60]}},
{"type":"Feature","properties":{"name":"Delaware"},"geometry":{"type":"Point","coordinates":[-75.50,39.00]}},
{"type":"Feature","properties":{"name":"Florida"},"geometry":{"type":"Point","coordinates":[-81.52,27.77]}},
{"type":"Feature","properties":{"name":"Georgia"},"geometry":{"type":"Point","coordinates":[-83.44,32.69]}},
{"type":"Feature","properties":{"name":"Idaho"},"geometry":{"type":"Point","coordinates":[-114.48,44.35]}},
{"type":"Feature","properties":{"name":"Illinois"},"geometry":{"type":"Point","coordinates":[-89.20,39.74]}},
{"type":"Feature","properties":{"name":"Indiana"},"geometry":{"type":"Point","coordinates":[-86.27,39.77]}},
{"type":"Feature","properties":{"name":"Iowa"},"geometry":{"type":"Point","coordinates":[-93.21,42.07]}},
{"type":"Feature","properties":{"name":"Kansas"},"geometry":{"type":"Point","coordinates":[-98.35,38.52]}},
{"type":"Feature","properties":{"name":"Kentucky"},"geometry":{"type":"Point","coordinates":[-84.87,37.64]}},
{"type":"Feature","properties":{"name":"Louisiana"},"geometry":{"type":"Point","coordinates":[-91.96,30.98]}},
{"type":"Feature","properties":{"name":"Maine"},"geometry":{"type":"Point","coordinates":[-69.38,45.37]}},
{"type":"Feature","properties":{"name":"Maryland"},"geometry":{"type":"Point","coordinates":[-76.80,38.97]}},
{"type":"Feature","properties":{"name":"Massachusetts"},"geometry":{"type":"Point","coordinates":[-71.53,42.23]}},
{"type":"Feature","properties":{"name":"Michigan"},"geometry":{"type":"Point","coordinates":[-85.54,44.18]}},
{"type":"Feature","properties":{"name":"Minnesota"},"geometry":{"type":"Point","coordinates":[-93.90,46.39]}},
{"type":"Feature","properties":{"name":"Mississippi"},"geometry":{"type":"Point","coordinates":[-89.68,32.75]}},
{"type":"Feature","properties":{"name":"Missouri"},"geometry":{"type":"Point","coordinates":[-92.29,38.45]}},
{"type":"Feature","properties":{"name":"Montana"},"geometry":{"type":"Point","coordinates":[-110.36,46.86]}},
{"type":"Feature","properties":{"name":"Nebraska"},"geometry":{"type":"Point","coordinates":[-98.27,41.49]}},
{"type":"Feature","properties":{"name":"Nevada"},"geometry":{"type":"Point","coordinates":[-116.42,39.36]}},
{"type":"Feature","properties":{"name":"New Hampshire"},"geometry":{"type":"Point","coordinates":[-71.58,43.68]}},
{"type":"Feature","properties":{"name":"New Jersey"},"geometry":{"type":"Point","coordinates":[-74.66,40.14]}},
{"type":"Feature","properties":{"name":"New Mexico"},"geometry":{"type":"Point","coordinates":[-106.11,34.32]}},
{"type":"Feature","properties":{"name":"New York"},"geometry":{"type":"Point","coordinates":[-75.20,43.00]}},
{"type":"Feature","properties":{"name":"North Carolina"},"geometry":{"type":"Point","coordinates":[-79.39,35.55]}},
{"type":"Feature","properties":{"name":"North Dakota"},"geometry":{"type":"Point","coordinates":[-100.47,47.53]}},
{"type":"Feature","properties":{"name":"Ohio"},"geometry":{"type":"Point","coordinates":[-82.91,40.42]}},
{"type":"Feature","properties":{"name":"Oklahoma"},"geometry":{"type":"Point","coordinates":[-97.46,35.56]}},
{"type":"Feature","properties":{"name":"Oregon"},"geometry":{"type":"Point","coordinates":[-120.54,43.94]}},
{"type":"Feature","properties":{"name":"Pennsylvania"},"geometry":{"type":"Point","coordinates":[-77.19,40.89]}},
{"type":"Feature","properties":{"name":"Rhode Island"},"geometry":{"type":"Point","coordinates":[-71.51,41.68]}},
{"type":"Feature","properties":{"name":"South Carolina"},"geometry":{"type":"Point","coordinates":[-80.90,33.84]}},
{"type":"Feature","properties":{"name":"South Dakota"},"geometry":{"type":"Point","coordinates":[-100.22,44.44]}},
{"type":"Feature","properties":{"name":"Tennessee"},"geometry":{"type":"Point","coordinates":[-86.69,35.80]}},
{"type":"Feature","properties":{"name":"Texas"},"geometry":{"type":"Point","coordinates":[-97.66,31.10]}},
{"type":"Feature","properties":{"name":"Utah"},"geometry":{"type":"Point","coordinates":[-111.09,39.32]}},
{"type":"Feature","properties":{"name":"Vermont"},"geometry":{"type":"Point","coordinates":[-72.67,44.05]}},
{"type":"Feature","properties":{"name":"Virginia"},"geometry":{"type":"Point","coordinates":[-78.85,37.43]}},
{"type":"Feature","properties":{"name":"Washington"},"geometry":{"type":"Point","coordinates":[-120.74,47.40]}},
{"type":"Feature","properties":{"name":"West Virginia"},"geometry":{"type":"Point","coordinates":[-80.54,38.64]}},
{"type":"Feature","properties":{"name":"Wisconsin"},"geometry":{"type":"Point","coordinates":[-89.61,44.27]}},
{"type":"Feature","properties":{"name":"Wyoming"},"geometry":{"type":"Point","coordinates":[-107.55,43.08]}}
]}
